stk.v.12.0



BEGIN Ephemeris

	NumberOfEphemerisPoints		30

	ScenarioEpoch			2023-01-10 02:00:00


	InterpolationMethod		 Lagrange

	InterpolationSamplesM1		 1

	CentralBody		 Earth

	CoordinateSystem		  My Custom Element Debugging Report



Time		PERIGEE			 RAAN			TRUE ANOMALY			Mean Anomaly			Mean Motion				GMST				ECC Anomaly

0.0		269.6903		261.2555		117.46181561087774		109.57859547739201		1.0027953290015932		2.432016921708771		113.55252021478088
60.0		269.6903		261.2555		117.69726000614332		109.8292943094167		1.0027953271960377		2.4363921912220228		113.79579395709075
120.0		269.6903		261.2555		117.93257015519458		110.07999314099004		1.0027953253904822		2.440767460735242		114.03899817478607
180.0		269.6903		261.2555		118.16774646853553		110.33069197211194		1.0027953235849267		2.445142730248494		114.28213306357335
240.0		269.6903		261.2555		118.40278935788842		110.5813908027825		1.002795321779371		2.449517999761745		114.52519881996113
300.0		269.6903		261.2555		118.6376992361807		110.83208963300166		1.0027953199738155		2.4538932692749964		114.76819564125293
360.0		269.6903		261.2555		118.87247651753256		111.08278846276937		1.00279531816826		2.458268538788216		115.01112372554077
420.0		269.6903		261.2555		119.10712161724433		111.3334872920858		1.0027953163627044		2.462643808301468		115.25398327169881
480.0		269.6903		261.2555		119.34163495178359		111.58418612095073		1.0027953145571489		2.467019077814719		115.49677447937609
540.0		269.6903		261.2555		119.57601693877335		111.83488494936438		1.0027953127515934		2.4713943473279705		115.73949754899084
600.0		269.6903		261.2555		119.81026799697901		112.08558377732652		1.002795310946038		2.4757696168411902		115.98215268172306
660.0		269.6903		261.2555		120.04438854629672		112.33628260483738		1.0027953091404822		2.4801448863544415		116.22474007950889
720.0		269.6903		261.2555		120.27837900774068		112.58698143189679		1.0027953073349267		2.4845201558676933		116.46725994503336
780.0		269.6903		261.2555		120.51223980343136		112.8376802585048		1.002795305529371		2.4888954253809445		116.70971248172447
840.0		269.6903		261.2555		120.74597135658333		113.08837908466148		1.0027953037238153		2.4932706948941643		116.95209789374663
900.0		269.6903		261.2555		120.97957409149326		113.33907791036671		1.0027953019182598		2.4976459644074156		117.19441638599407
960.0		269.6903		261.2555		121.21304843352824		113.5897767356206		1.0027953001127043		2.502021233920667		117.43666816408486
1020.0		269.6903		261.2555		121.44639480911381		113.8404755604231		1.0027952983071489		2.5063965034339186		117.67885343435434
1080.0		269.6903		261.2555		121.67961364572233		114.09117438477415		1.0027952965015932		2.5107717729471384		117.92097240384871
1140.0		269.6903		261.2555		121.91270537186153		114.34187320867392		1.0027952946960377		2.5151470424603897		118.16302528031929
1200.0		269.6903		261.2555		122.14567041706256		114.59257203212218		1.0027952928904822		2.519522311973641		118.40501227221552
1260.0		269.6903		261.2555		122.37850921186904		114.84327085511916		1.0027952910849265		2.5238975814868927		118.64693358867956
1320.0		269.6903		261.2555		122.61122218782516		115.09396967766463		1.002795289279371		2.528272851000112		118.88878943953938
1380.0		269.6903		261.2555		122.84380977746513		115.34466849975882		1.0027952874738155		2.5326481205133637		119.1305800353034
1440.0		269.6903		261.2555		123.076272414301		115.59536732140157		1.00279528566826		2.537023390026615		119.37230558715346
1500.0		269.6903		261.2555		123.30861053281237		115.84606614259292		1.0027952838627043		2.5413986595398663		119.61396630693963
1560.0		269.6903		261.2555		123.54082456843494		116.09676496333293		1.0027952820571489		2.545773929053086		119.85556240717362
1620.0		269.6903		261.2555		123.7729149575495		116.34746378362149		1.0027952802515934		2.550149198566338		120.09709410102283
1680.0		269.6903		261.2555		124.00488213747147		116.59816260345872		1.0027952784460379		2.554524468079589		120.3385616023047
1740.0		269.6903		261.2555		124.23672654643948		116.8488614228445		1.0027952766404822		2.5588997375928404		120.5799651254802
1800.0		269.6903		261.2555		124.46844862360516		117.09956024177893		1.0027952748349267		2.56327500710606		120.82130488564843


END Ephemeris